NORAD_CAT_ID,OBJECT_NAME,OBJECT_TYPE,EPOCH,MEAN_MOTION,ECCENTRICITY,INCLINATION,RA_OF_ASC_NODE,ARG_OF_PERICENTER,MEAN_ANOMALY,BSTAR,MEAN_MOTION_DOT,MEAN_MOTION_DDOT,TLE_LINE0,TLE_LINE1,TLE_LINE2,SEMIMAJOR_AXIS,PERIOD,APOGEE,PERIGEE,DECAYED
52989.0,STARLINK-4293,PAYLOAD,2022-10-20 22:00:00,15.08827936,0.0002085,53.2172,251.7267,31.8277,24.5663,0.0013696,0.00021569,0.0,0 STARLINK-4293,1 52989U 22076D   22293.91667824  .00021569  00000-0  13696-2 0  9991,2 52989  53.2172 251.7267 0002085  31.8277  24.5663 15.08827936  1307,6917.917,95.438,541.225,538.34,0.0
52989.0,STARLINK-4293,PAYLOAD,2022-10-21 06:00:00,15.08825467,0.0002376999999999,53.2172,250.2326,29.3135,38.6687,0.0015122999999999,0.00023853,0.0,0 STARLINK-4293,1 52989U 22076D   22294.25001157  .00023853  00000-0  15123-2 0  9995,2 52989  53.2172 250.2326 0002377  29.3135  38.6687 15.08825467 16660,6917.925,95.438,541.434,538.145,0.0
52989.0,STARLINK-4293,PAYLOAD,2022-10-21 14:00:01,15.08853666,0.0002249,53.2175,248.7347,31.7139,47.869,-0.0027188,-0.00043316,0.0,0 STARLINK-4293,1 52989U 22076D   22294.58334491 -.00043316  00000-0 -27188-2 0  9993,2 52989  53.2175 248.7347 0002249  31.7139  47.8690 15.08853666  1300,6917.839,95.437,541.259,538.148,0.0
52989.0,STARLINK-4293,PAYLOAD,2022-10-21 22:00:00,15.08838845,0.0002191999999999,53.2177,247.2403,36.1177,55.0488,0.00080434,0.00012536,0.0,0 STARLINK-4293,1 52989U 22076D   22294.91667824  .00012536  00000-0  80434-3 0  9991,2 52989  53.2177 247.2403 0002192  36.1177  55.0488 15.08838845  1305,6917.884,95.438,541.265,538.2330000000002,0.0
52989.0,STARLINK-4293,PAYLOAD,2022-10-22 06:00:00,15.08838918,0.0002387,53.2176,245.7457,32.7615,70.0061,0.00031846,4.784e-05,0.0,0 STARLINK-4293,1 52989U 22076D   22295.25001157  .00004784  00000-0  31846-3 0  9999,2 52989  53.2176 245.7457 0002387  32.7615  70.0061 15.08838918 16818,6917.884,95.438,541.4,538.097,0.0
52989.0,STARLINK-4293,PAYLOAD,2022-10-22 14:00:01,15.08839373,0.0002195,53.2175,244.2479,33.2609,81.1074,-0.00085544,-0.00013877,0.0,0 STARLINK-4293,1 52989U 22076D   22295.58334491 -.00013877  00000-0 -85544-3 0  9994,2 52989  53.2175 244.2479 0002195  33.2609  81.1074 15.08839373  1302,6917.882,95.438,541.266,538.229,0.0
52989.0,STARLINK-4293,PAYLOAD,2022-10-22 22:00:00,15.08854162,0.0002131999999999,53.2177,242.7513,36.4115,89.545,0.00080492,0.0001255,0.0,0 STARLINK-4293,1 52989U 22076D   22295.91667824  .00012550  00000-0  80492-3 0  9992,2 52989  53.2177 242.7513 0002132  36.4115  89.5450 15.08854162  1307,6917.837,95.437,541.177,538.227,0.0
52989.0,STARLINK-4293,PAYLOAD,2022-10-23 14:00:01,15.08855043,0.0002145,53.2174,239.7587,33.583,115.6275,-0.00042886,-7.11e-05,0.0,0 STARLINK-4293,1 52989U 22076D   22296.58334491 -.00007110  00000-0 -42886-3 0  9990,2 52989  53.2174 239.7587 0002145  33.5830 115.6275 15.08855043 17028,6917.834,95.437,541.183,538.216,0.0
52989.0,STARLINK-4293,PAYLOAD,2022-10-23 22:00:00,15.08871822,0.0002128,53.2176,238.2623,36.8343,123.9806,-0.0039139,-0.00062097,0.0,0 STARLINK-4293,1 52989U 22076D   22296.91667824 -.00062097  00000-0 -39139-2 0  9997,2 52989  53.2176 238.2623 0002128  36.8343 123.9806 15.08871822  1300,6917.783,95.436,541.12,538.1759999999998,0.0
52989.0,STARLINK-4293,PAYLOAD,2022-10-24 06:00:00,15.08805346,0.0002275,53.2174,236.7675,30.9749,141.457,-0.00097092,-0.00015693,0.0,0 STARLINK-4293,1 52989U 22076D   22297.25001157 -.00015693  00000-0 -97092-3 0  9999,2 52989  53.2174 236.7675 0002275  30.9749 141.4570 15.08805346 17124,6917.986,95.44,541.425,538.2769999999998,0.0
52989.0,STARLINK-4293,PAYLOAD,2022-10-24 14:00:01,15.08784312,0.0002073999999999,53.2173,235.2696,31.0294,152.9517,0.00060742,9.378e-05,0.0,0 STARLINK-4293,1 52989U 22076D   22297.58334491  .00009378  00000-0  60742-3 0  9998,2 52989  53.2173 235.2696 0002074  31.0294 152.9517 15.08784312  1304,6918.051,95.441,541.35,538.481,0.0
52989.0,STARLINK-4293,PAYLOAD,2022-10-24 22:00:00,15.08808268,0.0002106,53.2175,233.7736,34.5908,160.9164,-0.00032979,-5.529e-05,0.0,0 STARLINK-4293,1 52989U 22076D   22297.91667824 -.00005529  00000-0 -32979-3 0  9991,2 52989  53.2175 233.7736 0002106  34.5908 160.9164 15.08808268  1304,6917.977,95.44,541.299,538.385,0.0
52989.0,STARLINK-4293,PAYLOAD,2022-10-25 06:00:00,15.08782772,0.0002331,53.2175,232.2788,30.9188,176.1487,0.0036339,0.00057931,0.0,0 STARLINK-4293,1 52989U 22076D   22298.25001157  .00057931  00000-0  36339-2 0  9995,2 52989  53.2175 232.2788 0002331  30.9188 176.1487 15.08782772 17276,6918.055,95.441,541.533,538.308,0.0
52989.0,STARLINK-4293,PAYLOAD,2022-10-25 14:00:01,15.0881122,0.0002174999999999,53.2175,230.7808,33.2517,185.3701,0.0009632999999999,0.00015064,0.0,0 STARLINK-4293,1 52989U 22076D   22298.58334491  .00015064  00000-0  96330-3 0  9990,2 52989  53.2175 230.7808 0002175  33.2517 185.3701 15.08811220  1309,6917.968000000003,95.439,541.3380000000002,538.3290000000002,0.0
52989.0,STARLINK-4293,PAYLOAD,2022-10-25 22:00:01,15.08841164,0.0002226,53.2176,229.2849,36.5691,193.6782,-0.00044473,-7.36e-05,0.0,0 STARLINK-4293,1 52989U 22076D   22298.91668981 -.00007360  00000-0 -44473-3 0  9994,2 52989  53.2176 229.2849 0002226  36.5691 193.6782 15.08841164 17379,6917.877,95.437,541.2819999999998,538.202,0.0
52989.0,STARLINK-4293,PAYLOAD,2022-10-26 14:00:01,15.08839557,0.000227,53.2178,226.292,35.729,217.6474,0.0016558,0.00026162,0.0,0 STARLINK-4293,1 52989U 22076D   22299.58334491  .00026162  00000-0  16558-2 0  9995,2 52989  53.2178 226.2920 0002270  35.7290 217.6474 15.08839557  1307,6917.882,95.438,541.317,538.1759999999998,0.0
52989.0,STARLINK-4293,PAYLOAD,2022-10-26 22:00:00,15.08883798,0.0002303,53.2179,224.7962,37.2631,227.7101,-0.0036393999999999,-0.00057816,0.0,0 STARLINK-4293,1 52989U 22076D   22299.91667824 -.00057816  00000-0 -36394-2 0  9993,2 52989  53.2179 224.7962 0002303  37.2631 227.7101 15.08883798 17526,6917.746999999999,95.435,541.205,538.018,0.0
52989.0,STARLINK-4293,PAYLOAD,2022-10-27 14:00:01,15.08836613,0.0002266,53.218,221.803,34.2294,254.0501,0.00044308,6.77e-05,0.0,0 STARLINK-4293,1 52989U 22076D   22300.58335648  .00006770  00000-0  44308-3 0  9991,2 52989  53.2180 221.8030 0002266  34.2294 254.0501 15.08836613  1302,6917.891,95.438,541.323,538.188,0.0
52989.0,STARLINK-4293,PAYLOAD,2022-10-27 22:00:00,15.08858784,0.0002295999999999,53.218,220.3073,35.2757,264.5301,-0.00066101,-0.00010799,0.0,0 STARLINK-4293,1 52989U 22076D   22300.91667824 -.00010799  00000-0 -66101-3 0  9995,2 52989  53.2180 220.3073 0002296  35.2757 264.5301 15.08858784  1308,6917.823,95.436,541.276,538.1,0.0
52989.0,STARLINK-4293,PAYLOAD,2022-10-28 14:00:01,15.088196599999998,0.000218,53.2179,217.3141,31.8692,291.2428,0.0011565999999999,0.00018157,0.0,0 STARLINK-4293,1 52989U 22076D   22301.58335648  .00018157  00000-0  11566-2 0  9993,2 52989  53.2179 217.3141 0002180  31.8692 291.2428 15.08819660  1307,6917.943,95.439,541.316,538.299,0.0
52989.0,STARLINK-4293,PAYLOAD,2022-10-28 22:00:01,15.08848853,0.0002218999999999,53.2179,215.8185,32.1176,302.5684,-0.00073245,-0.0001193,0.0,0 STARLINK-4293,1 52989U 22076D   22301.91668981 -.00011930  00000-0 -73245-3 0  9996,2 52989  53.2179 215.8185 0002219  32.1176 302.5684 15.08848853 17822,6917.853,95.437,541.253,538.183,0.0
52989.0,STARLINK-4293,PAYLOAD,2022-10-29 12:00:00,15.08852536,0.0002230999999999,53.2174,213.1922,30.9841,233.9425,-0.0035789999999999,-0.00056821,0.0,0 STARLINK-4293,1 52989U 22076D   22302.50001157 -.00056821  00000-0 -35790-2 0  9998,2 52989  53.2174 213.1922 0002231  30.9841 233.9425 15.08852536  1305,6917.842,95.437,541.25,538.164,0.0
52989.0,STARLINK-4293,PAYLOAD,2022-10-29 22:00:01,15.08897754,0.0002166999999999,53.2174,211.3297,30.2308,339.2926,-0.0034576,-0.00054985,0.0,0 STARLINK-4293,1 52989U 22076D   22302.91668981 -.00054985  00000-0 -34576-2 0  9997,2 52989  53.2174 211.3297 0002167  30.2308 339.2926 15.08897754  1306,6917.704000000002,95.434,541.068,538.07,0.0
52989.0,STARLINK-4293,PAYLOAD,2022-10-30 00:00:00,15.08884788,0.0002234999999999,53.2172,210.9562,29.6823,72.6933,-0.0026756999999999,-0.00042674,0.0,0 STARLINK-4293,1 52989U 22076D   22303.00001157 -.00042674  00000-0 -26757-2 0  9998,2 52989  53.2172 210.9562 0002235  29.6823  72.6933 15.08884788 17984,6917.743,95.435,541.155,538.062,0.0
52989.0,STARLINK-4293,PAYLOAD,2022-10-30 14:00:01,15.08810333,0.0002041999999999,53.2168,208.3361,30.6214,2.1038,-6.638899999999999e-05,-1.344e-05,0.0,0 STARLINK-4293,1 52989U 22076D   22303.58334491 -.00001344  00000-0 -66389-4 0  9997,2 52989  53.2168 208.3361 0002042  30.6214   2.1038 15.08810333  1307,6917.971,95.439,541.249,538.423,0.0
52989.0,STARLINK-4293,PAYLOAD,2022-10-30 22:00:01,15.08622703,0.0001952,53.2175,206.8279,35.0663,9.3232,0.015547,0.00254701,0.0,0 STARLINK-4293,1 52989U 22076D   22303.91668981  .00254701  00000-0  15547-1 0  9990,2 52989  53.2175 206.8279 0001952  35.0663   9.3232 15.08622703  1309,6918.545,95.451,541.76,539.059,0.0
52989.0,STARLINK-4293,PAYLOAD,2022-10-31 14:00:01,15.08794282,0.0002112,53.2163,203.8471,34.1547,33.3026,0.0036658999999999,0.00058466,0.0,0 STARLINK-4293,1 52989U 22076D   22304.58334491  .00058466  00000-0  36659-2 0  9998,2 52989  53.2163 203.8471 0002112  34.1547  33.3026 15.08794282  1307,6918.02,95.44,541.346,538.424,0.0
52989.0,STARLINK-4293,PAYLOAD,2022-10-31 22:00:01,15.08847055,0.0002234,53.2163,202.352,33.5532,45.5321,-0.0028323,-0.00045093,0.0,0 STARLINK-4293,1 52989U 22076D   22304.91668981 -.00045093  00000-0 -28323-2 0  9992,2 52989  53.2163 202.3520 0002234  33.5532  45.5321 15.08847055 18272,6917.859,95.437,541.269,538.178,0.0
52989.0,STARLINK-4293,PAYLOAD,2022-11-01 14:00:01,15.08826153,0.00021,53.2162,199.3581,32.6505,69.5457,0.00049378,7.576e-05,0.0,0 STARLINK-4293,1 52989U 22076D   22305.58334491  .00007576  00000-0  49378-3 0  9998,2 52989  53.2162 199.3581 0002100  32.6505  69.5457 15.08826153 18378,6917.9230000000025,95.438,541.24,538.335,0.0
